STARLINK-2022           
1 47643U 21012Z   23265.02200796  .00020570  00000+0  13941-2 0  9997
2 47643  53.0518 130.3856 0001365  81.0079 279.1065 15.06446079144140
